BEIDOU-3 G1 (C59)       
1 43683U 18085A   26064.82486653 -.00000284  00000+0  00000+0 0  9999
2 43683   2.8143 100.3477 0001433  19.4615 120.7150  1.00268219 27029
COSMOS 2529 (757)       
1 43687U 18086A   26058.37448306  .00000008  00000+0  00000+0 0  9993
2 43687  64.2955 196.2992 0007959 253.0448 106.8346  2.13101880 56941
BEIDOU-3 M17 (C36)      
1 43706U 18093A   26061.46828306 -.00000026  00000+0  00000+0 0  9990
2 43706  54.1714 185.9163 0006994 297.4131  70.7484  1.86228347 49556
BEIDOU-3 M18 (C37)      
1 43707U 18093B   26061.31825568 -.00000028  00000+0  00000+0 0  9994
2 43707  54.1724 185.9133 0006020 341.6195  18.3110  1.86226384 49549
GPS BIII-1  (PRN 04)    
1 43873U 18109A   26064.54824937  .00000003  00000+0  00000+0 0  9995
2 43873  55.6158  96.2741 0037932 198.3516 334.4617  2.00556893 52994
BEIDOU-3 IGSO-1 (C38)   
1 44204U 19023A   26064.82079317 -.00000208  00000+0  00000+0 0  9993
2 44204  58.5558  38.7108 0025990 236.4256 303.0490  1.00270662  6179
BEIDOU-2 G8 (C01)       
1 44231U 19027A   26063.42864138 -.00000263  00000+0  00000+0 0  9996
2 44231   1.3928  74.2820 0011710 280.8825 105.6990  1.00247794 25039
COSMOS 2534 (758)       
1 44299U 19030A   26063.82267120  .00000008  00000+0  00000+0 0  9992
2 44299  64.3687 196.1275 0009607 279.9650  74.0554  2.13102294 52696
BEIDOU-3 IGSO-2 (C39)   
1 44337U 19035A   26057.68879618 -.00000176  00000+0  00000+0 0  9995
2 44337  55.2338 159.8353 0038734 206.4752 153.7223  1.00247364 24561
GPS BIII-2  (PRN 18)    
1 44506U 19056A   26064.18575662 -.00000100  00000+0  00000+0 0  9998
2 44506  55.6843 335.2783 0058036 198.1200 333.2871  2.00568377 47989
BEIDOU-3 M24 (C46)      
1 44542U 19061A   26062.99913500 -.00000010  00000+0  00000+0 0  9998
2 44542  54.3992 186.2751 0008488  19.7399 340.2521  1.86228942 43836
BEIDOU-3 M23 (C45)      
1 44543U 19061B   26064.78516135  .00000009  00000+0  00000+0 0  9998
2 44543  54.3974 186.1828 0005061  14.0485  15.6215  1.86227349 43876
EUTELSAT 5 WEST B (EGN*)
1 44624U 19067A   26064.79614898 -.00000049  00000+0  00000+0 0  9995
2 44624   0.0924 311.8974 0003213  43.3908  89.8196  1.00272944 23405
BEIDOU-3 IGSO-3 (C40)   
1 44709U 19073A   26063.99963149 -.00000162  00000+0  00000+0 0  9999
2 44709  54.9773 282.0232 0040552 188.9230 171.0493  1.00269134 23418
BEIDOU-3 M22 (C44)      
1 44793U 19078A   26063.37544912 -.00000060  00000+0  00000+0 0  9999
2 44793  54.0307 303.5169 0007273  35.6258 324.4804  1.86231851 42694
BEIDOU-3 M21 (C43)      
1 44794U 19078B   26062.97806659 -.00000058  00000+0  00000+0 0  9991
2 44794  54.0042 303.4937 0005911  39.9322 320.1697  1.86227541 42693
COSMOS 2544 (759)       
1 44850U 19088A   26064.79180807  .00000005  00000+0  00000+0 0  9998
2 44850  65.5068  77.1804 0015782 259.6490 100.2103  2.13101825 48516
